{"type": "FeatureCollection", "features": [{"type": "Feature", "properties": {"norad_id": 36828, "name": "BEIDOU-2 IGSO-1 (C06)", "group": "beidou", "lat": -21.29400656437285, "lon": 0.8617134071251756, "alt_km": 35570.93794626262, "timestamp": "2025-12-21T11:31:43.120659+00:00", "meta": {"OBJECT_NAME": "BEIDOU-2 IGSO-1 (C06)", "OBJECT_ID": "2010-036A", "EPOCH": "2025-12-20T21:47:26.739168", "MEAN_MOTION": 1.00282395, "ECCENTRICITY": 0.0051798, "INCLINATION": 54.2882, "RA_OF_ASC_NODE": 164.5739, "ARG_OF_PERICENTER": 215.2932, "MEAN_ANOMALY": 144.6604, "EPHEMERIS_TYPE": 0, "CLASSIFICATION_TYPE": "U", "NORAD_CAT_ID": 36828, "ELEMENT_SET_NO": 999, "REV_AT_EPOCH": 5631, "BSTAR": 0, "MEAN_MOTION_DOT": -5.5e-07, "MEAN_MOTION_DDOT": 0}, "tle": {"line1": "1 36828U 10036A   25354.90794837 -.00000055  00000+0  00000+0 0  9992", "line2": "2 36828  54.2882 164.5739 0051798 215.2932 144.6604  1.00282395 56317"}}, "geometry": {"type": "Point", "coordinates": [0.8617134071251756, -21.29400656437285]}}, {"type": "Feature", "properties": {"norad_id": 37210, "name": "BEIDOU-2 G4 (C04)", "group": "beidou", "lat": -0.34456925135687566, "lon": 63.357499775619175, "alt_km": 35827.64839365175, "timestamp": "2025-12-21T11:31:43.120690+00:00", "meta": {"OBJECT_NAME": "BEIDOU-2 G4 (C04)", "OBJECT_ID": "2010-057A", "EPOCH": "2025-12-21T03:41:18.797856", "MEAN_MOTION": 1.00271974, "ECCENTRICITY": 0.0010416, "INCLINATION": 3.2044, "RA_OF_ASC_NODE": 69.9074, "ARG_OF_PERICENTER": 193.0247, "MEAN_ANOMALY": 42.4575, "EPHEMERIS_TYPE": 0, "CLASSIFICATION_TYPE": "U", "NORAD_CAT_ID": 37210, "ELEMENT_SET_NO": 999, "REV_AT_EPOCH": 5550, "BSTAR": 0, "MEAN_MOTION_DOT": -9.1e-07, "MEAN_MOTION_DDOT": 0}, "tle": {"line1": "1 37210U 10057A   25355.15368979 -.00000091  00000+0  00000+0 0  9993", "line2": "2 37210   3.2044  69.9074 0010416 193.0247  42.4575  1.00271974 55504"}}, "geometry": {"type": "Point", "coordinates": [63.357499775619175, -0.34456925135687566]}}, {"type": "Feature", "properties": {"norad_id": 37256, "name": "BEIDOU-2 IGSO-2 (C07)", "group": "beidou", "lat": 47.49495480132206, "lon": 13.845157550139694, "alt_km": 35877.580943295405, "timestamp": "2025-12-21T11:31:43.120707+00:00", "meta": {"OBJECT_NAME": "BEIDOU-2 IGSO-2 (C07)", "OBJECT_ID": "2010-068A", "EPOCH": "2025-12-20T17:09:56.640960", "MEAN_MOTION": 1.0028399, "ECCENTRICITY": 0.00484742, "INCLINATION": 47.8714, "RA_OF_ASC_NODE": 274.0512, "ARG_OF_PERICENTER": 216.3556, "MEAN_ANOMALY": 324.5527, "EPHEMERIS_TYPE": 0, "CLASSIFICATION_TYPE": "U", "NORAD_CAT_ID": 37256, "ELEMENT_SET_NO": 999, "REV_AT_EPOCH": 5500, "BSTAR": 0, "MEAN_MOTION_DOT": -1.89e-06, "MEAN_MOTION_DDOT": 0}, "tle": {"line1": "1 37256U 10068A   25354.71523890 -.00000189  00000+0  00000+0 0  9999", "line2": "2 37256  47.8714 274.0512 0048474 216.3556 324.5527  1.00283990 55002"}}, "geometry": {"type": "Point", "coordinates": [13.845157550139694, 47.49495480132206]}}, {"type": "Feature", "properties": {"norad_id": 37384, "name": "BEIDOU-2 IGSO-3 (C08)", "group": "beidou", "lat": -27.186646056523305, "lon": 26.13229956197907, "alt_km": 35906.28100894424, "timestamp": "2025-12-21T11:31:43.120722+00:00", "meta": {"OBJECT_NAME": "BEIDOU-2 IGSO-3 (C08)", "OBJECT_ID": "2011-013A", "EPOCH": "2025-12-20T17:53:25.122624", "MEAN_MOTION": 1.00268991, "ECCENTRICITY": 0.00353432, "INCLINATION": 62.1536, "RA_OF_ASC_NODE": 41.8403, "ARG_OF_PERICENTER": 187.7861, "MEAN_ANOMALY": 235.669, "EPHEMERIS_TYPE": 0, "CLASSIFICATION_TYPE": "U", "NORAD_CAT_ID": 37384, "ELEMENT_SET_NO": 999, "REV_AT_EPOCH": 5387, "BSTAR": 0, "MEAN_MOTION_DOT": -1.63e-06, "MEAN_MOTION_DDOT": 0}, "tle": {"line1": "1 37384U 11013A   25354.74542966 -.00000163  00000+0  00000+0 0  9992", "line2": "2 37384  62.1536  41.8403 0035343 187.7861 235.6690  1.00268991 53876"}}, "geometry": {"type": "Point", "coordinates": [26.13229956197907, -27.186646056523305]}}, {"type": "Feature", "properties": {"norad_id": 37763, "name": "BEIDOU-2 IGSO-4 (C09)", "group": "beidou", "lat": -7.7682696619198195, "lon": -7.164244538362608, "alt_km": 35304.532023276435, "timestamp": "2025-12-21T11:31:43.120736+00:00", "meta": {"OBJECT_NAME": "BEIDOU-2 IGSO-4 (C09)", "OBJECT_ID": "2011-038A", "EPOCH": "2025-12-17T23:29:21.564384", "MEAN_MOTION": 1.00281312, "ECCENTRICITY": 0.01493143, "INCLINATION": 54.5836, "RA_OF_ASC_NODE": 167.2999, "ARG_OF_PERICENTER": 230.2426, "MEAN_ANOMALY": 136.1954, "EPHEMERIS_TYPE": 0, "CLASSIFICATION_TYPE": "U", "NORAD_CAT_ID": 37763, "ELEMENT_SET_NO": 999, "REV_AT_EPOCH": 5283, "BSTAR": 0, "MEAN_MOTION_DOT": 6.5e-07, "MEAN_MOTION_DDOT": 0}, "tle": {"line1": "1 37763U 11038A   25351.97872181  .00000065  00000+0  00000+0 0  9997", "line2": "2 37763  54.5836 167.2999 0149314 230.2426 136.1954  1.00281312 52838"}}, "geometry": {"type": "Point", "coordinates": [-7.164244538362608, -7.7682696619198195]}}, {"type": "Feature", "properties": {"norad_id": 37948, "name": "BEIDOU-2 IGSO-5 (C10)", "group": "beidou", "lat": 47.44680962677463, "lon": -7.993671053589349, "alt_km": 36128.38199893443, "timestamp": "2025-12-21T11:31:43.120750+00:00", "meta": {"OBJECT_NAME": "BEIDOU-2 IGSO-5 (C10)", "OBJECT_ID": "2011-073A", "EPOCH": "2025-12-20T17:45:23.966208", "MEAN_MOTION": 1.00289634, "ECCENTRICITY": 0.01098505, "INCLINATION": 48.0053, "RA_OF_ASC_NODE": 273.7608, "ARG_OF_PERICENTER": 222.3057, "MEAN_ANOMALY": 313.2909, "EPHEMERIS_TYPE": 0, "CLASSIFICATION_TYPE": "U", "NORAD_CAT_ID": 37948, "ELEMENT_SET_NO": 999, "REV_AT_EPOCH": 5134, "BSTAR": 0, "MEAN_MOTION_DOT": -1.51e-06, "MEAN_MOTION_DDOT": 0}, "tle": {"line1": "1 37948U 11073A   25354.73986072 -.00000151  00000+0  00000+0 0  9990", "line2": "2 37948  48.0053 273.7608 0109850 222.3057 313.2909  1.00289634 51343"}}, "geometry": {"type": "Point", "coordinates": [-7.993671053589349, 47.44680962677463]}}, {"type": "Feature", "properties": {"norad_id": 38091, "name": "BEIDOU-2 G5 (C05)", "group": "beidou", "lat": -2.9843845563504217, "lon": -37.98689696414424, "alt_km": 35735.78236905488, "timestamp": "2025-12-21T11:31:43.120764+00:00", "meta": {"OBJECT_NAME": "BEIDOU-2 G5 (C05)", "OBJECT_ID": "2012-008A", "EPOCH": "2025-12-19T16:03:31.750272", "MEAN_MOTION": 1.00268606, "ECCENTRICITY": 0.0012969, "INCLINATION": 3.1258, "RA_OF_ASC_NODE": 70.6861, "ARG_OF_PERICENTER": 231.3522, "MEAN_ANOMALY": 86.1393, "EPHEMERIS_TYPE": 0, "CLASSIFICATION_TYPE": "U", "NORAD_CAT_ID": 38091, "ELEMENT_SET_NO": 999, "REV_AT_EPOCH": 5056, "BSTAR": 0, "MEAN_MOTION_DOT": 7.9e-07, "MEAN_MOTION_DDOT": 0}, "tle": {"line1": "1 38091U 12008A   25353.66911748  .00000079  00000+0  00000+0 0  9996", "line2": "2 38091   3.1258  70.6861 0012969 231.3522  86.1393  1.00268606 50560"}}, "geometry": {"type": "Point", "coordinates": [-37.98689696414424, -2.9843845563504217]}}, {"type": "Feature", "properties": {"norad_id": 38250, "name": "BEIDOU-2 M3 (C11)", "group": "beidou", "lat": 13.730074171953431, "lon": -39.644818758355754, "alt_km": 21539.701731398807, "timestamp": "2025-12-21T11:31:43.120777+00:00", "meta": {"OBJECT_NAME": "BEIDOU-2 M3 (C11)", "OBJECT_ID": "2012-018A", "EPOCH": "2025-12-20T22:02:43.406880", "MEAN_MOTION": 1.86230123, "ECCENTRICITY": 0.0024114, "INCLINATION": 55.9133, "RA_OF_ASC_NODE": 310.8827, "ARG_OF_PERICENTER": 275.2065, "MEAN_ANOMALY": 84.51, "EPHEMERIS_TYPE": 0, "CLASSIFICATION_TYPE": "U", "NORAD_CAT_ID": 38250, "ELEMENT_SET_NO": 999, "REV_AT_EPOCH": 9262, "BSTAR": 0, "MEAN_MOTION_DOT": -6.6e-07, "MEAN_MOTION_DDOT": 0}, "tle": {"line1": "1 38250U 12018A   25354.91855795 -.00000066  00000+0  00000+0 0  9999", "line2": "2 38250  55.9133 310.8827 0024114 275.2065  84.5100  1.86230123 92627"}}, "geometry": {"type": "Point", "coordinates": [-39.644818758355754, 13.730074171953431]}}, {"type": "Feature", "properties": {"norad_id": 38251, "name": "BEIDOU-2 M4 (C12)", "group": "beidou", "lat": 47.00861893506044, "lon": -3.179789757318006, "alt_km": 21556.84225565219, "timestamp": "2025-12-21T11:31:43.120789+00:00", "meta": {"OBJECT_NAME": "BEIDOU-2 M4 (C12)", "OBJECT_ID": "2012-018B", "EPOCH": "2025-12-20T20:24:53.726112", "MEAN_MOTION": 1.86229788, "ECCENTRICITY": 0.0015319, "INCLINATION": 55.8144, "RA_OF_ASC_NODE": 310.113, "ARG_OF_PERICENTER": 278.7848, "MEAN_ANOMALY": 81.0336, "EPHEMERIS_TYPE": 0, "CLASSIFICATION_TYPE": "U", "NORAD_CAT_ID": 38251, "ELEMENT_SET_NO": 999, "REV_AT_EPOCH": 9262, "BSTAR": 0, "MEAN_MOTION_DOT": -6.6e-07, "MEAN_MOTION_DDOT": 0}, "tle": {"line1": "1 38251U 12018B   25354.85062183 -.00000066  00000+0  00000+0 0  9994", "line2": "2 38251  55.8144 310.1130 0015319 278.7848  81.0336  1.86229788 92621"}}, "geometry": {"type": "Point", "coordinates": [-3.179789757318006, 47.00861893506044]}}, {"type": "Feature", "properties": {"norad_id": 38775, "name": "BEIDOU-2 M6 (C14)", "group": "beidou", "lat": -53.89496904715651, "lon": -45.60431459444806, "alt_km": 21532.58809122485, "timestamp": "2025-12-21T11:31:43.120802+00:00", "meta": {"OBJECT_NAME": "BEIDOU-2 M6 (C14)", "OBJECT_ID": "2012-050B", "EPOCH": "2025-12-21T02:21:46.465344", "MEAN_MOTION": 1.86230924, "ECCENTRICITY": 0.0011371, "INCLINATION": 56.3853, "RA_OF_ASC_NODE": 68.7901, "ARG_OF_PERICENTER": 343.4825, "MEAN_ANOMALY": 16.5255, "EPHEMERIS_TYPE": 0, "CLASSIFICATION_TYPE": "U", "NORAD_CAT_ID": 38775, "ELEMENT_SET_NO": 999, "REV_AT_EPOCH": 8999, "BSTAR": 0, "MEAN_MOTION_DOT": -3.7e-07, "MEAN_MOTION_DDOT": 0}, "tle": {"line1": "1 38775U 12050B   25355.09845446 -.00000037  00000+0  00000+0 0  9997", "line2": "2 38775  56.3853  68.7901 0011371 343.4825  16.5255  1.86230924 89999"}}, "geometry": {"type": "Point", "coordinates": [-45.60431459444806, -53.89496904715651]}}]}